OBJECT_NAME,OBJECT_ID,EPOCH,MEAN_MOTION,ECCENTRICITY,INCLINATION,RA_OF_ASC_NODE,ARG_OF_PERICENTER,MEAN_ANOMALY,EPHEMERIS_TYPE,CLASSIFICATION_TYPE,NORAD_CAT_ID,ELEMENT_SET_NO,REV_AT_EPOCH,BSTAR,MEAN_MOTION_DOT,MEAN_MOTION_DDOT
COSMOS 2251 DEB,1993-036NL,2024-03-18T05:46:56.337312,14.14667546,0.0110366,74.0101,358.4249,249.7357,237.2222,0,U,34314,999,77689,0.00039292,7.76e-06,0
COSMOS 2251 DEB,1993-036NN,2024-03-18T06:45:09.054720,14.64650266,0.0014534,74.0753,140.1352,32.5539,327.6523,0,U,34316,999,79836,0.00098471,5.217e-05,0
COSMOS 2251 DEB,1993-036NP,2024-03-18T05:12:40.075200,13.63442766,0.0339611,73.9271,359.0344,109.1053,38.9144,0,U,34317,999,74965,0.00080997,9.23e-06,0
COSMOS 2251 DEB,1993-036NR,2024-03-18T11:52:25.436640,15.03887322,0.0027016,74.0076,112.051,307.7478,52.1262,0,U,34319,999,79808,0.005273,0.00073958,0
COSMOS 2251 DEB,1993-036NT,2024-03-18T05:13:44.156352,14.45118299,0.0016916,74.0295,264.2438,187.0091,292.4402,0,U,34321,999,79303,0.00055939,1.934e-05,0
COSMOS 2251 DEB,1993-036NV,2024-03-17T14:11:44.246976,14.52072322,0.0094744,73.9629,267.8477,101.5327,315.9009,0,U,34323,999,79148,0.0017614,7.536e-05,0
COSMOS 2251 DEB,1993-036NX,2024-03-18T10:31:20.320032,13.98421295,0.0208072,73.8731,225.4999,3.7213,54.2026,0,U,34325,999,76627,0.00092864,1.573e-05,0
COSMOS 2251 DEB,1993-036NZ,2024-03-18T04:35:17.177856,14.69087156,0.0044356,74.0064,343.0854,313.9876,198.3037,0,U,34327,999,80150,0.00091847,5.448e-05,0
COSMOS 2251 DEB,1993-036PC,2024-03-18T12:51:03.274848,14.7807017,0.0010206,74.027,103.7741,325.3569,195.22,0,U,34330,999,79840,0.0024958,0.00018072,0
COSMOS 2251 DEB,1993-036PD,2024-03-18T10:04:20.541216,14.80599781,0.0032626,74.0201,195.3199,302.8081,56.9954,0,U,34331,999,79530,0.0030646,0.00023782,0
COSMOS 2251 DEB,1993-036PN,2024-03-18T01:03:43.632000,13.76228151,0.0301068,74.0768,285.7189,180.3808,305.6229,0,U,34340,999,75524,0.00091569,1.222e-05,0
COSMOS 2251 DEB,1993-036PQ,2024-03-18T04:21:58.533408,14.84751189,0.0078356,74.1715,356.1801,141.4911,339.0347,0,U,34342,999,80522,0.0013255,0.00011859,0
COSMOS 2251 DEB,1993-036PR,2024-03-18T12:43:12.105408,14.53815151,0.0026564,74.0261,224.5692,304.5421,136.66,0,U,34343,999,79462,0.0014883,6.255e-05,0
COSMOS 2251 DEB,1993-036PS,2024-03-18T06:17:48.693696,14.08830685,0.0162976,73.9822,156.4593,118.8852,311.4878,0,U,34344,999,77135,0.0013951,2.699e-05,0
COSMOS 2251 DEB,1993-036PU,2024-03-18T03:12:38.078784,13.9519113,0.0218878,73.9995,329.783,286.22,226.63,0,U,34346,999,76543,0.00119,1.937e-05,0
COSMOS 2251 DEB,1993-036PY,2024-03-18T12:20:36.189600,14.66545099,0.0010521,74.0332,117.5457,15.6739,104.4984,0,U,34383,999,79699,0.0015152,8.391e-05,0
COSMOS 2251 DEB,1993-036QB,2024-03-18T13:58:04.080288,14.74536492,0.0013629,74.021,155.9887,349.7721,76.8269,0,U,34386,999,79543,0.0025316,0.00016885,0
COSMOS 2251 DEB,1993-036QC,2024-03-18T14:13:03.029952,14.40940207,0.0040926,74.0417,308.1727,203.1102,181.0842,0,U,34387,999,79037,0.00029875,9.42e-06,0
COSMOS 2251 DEB,1993-036QD,2024-03-18T09:23:31.403616,14.42923432,0.0016871,74.0439,327.2467,174.9888,303.7033,0,U,34388,999,78983,0.00057746,1.908e-05,0
COSMOS 2251 DEB,1993-036QE,2024-03-18T04:08:19.438944,14.38362265,0.003193,74.0225,343.7928,249.7328,272.6596,0,U,34389,999,78877,0.00039972,1.199e-05,0
COSMOS 2251 DEB,1993-036QF,2024-03-17T11:18:43.246368,14.7236939,0.0060772,74.0847,102.2082,261.2492,219.027,0,U,34390,999,79801,0.0014088,9.161e-05,0
COSMOS 2251 DEB,1993-036QL,2024-03-18T12:04:13.907136,15.08002474,0.0019337,74.0229,98.7205,280.6143,202.9182,0,U,34395,999,79676,0.0058455,0.00091461,0
COSMOS 2251 DEB,1993-036QM,2024-03-17T23:32:05.301024,14.53940631,0.0017129,74.0372,263.7585,112.5882,42.3763,0,U,34396,999,79055,0.0014189,5.962e-05,0
COSMOS 2251 DEB,1993-036QN,2024-03-18T12:19:19.297056,15.35212083,0.0030926,73.8192,229.9405,62.7769,297.6581,0,U,34397,999,81184,0.0043689,0.00154747,0
COSMOS 2251 DEB,1993-036QR,2024-03-18T12:25:20.899200,14.80436318,0.0053004,73.9986,245.5803,196.2975,163.65,0,U,34400,999,80436,0.0019582,0.00015332,0
COSMOS 2251 DEB,1993-036QS,2024-03-18T11:49:57.238176,14.73802152,0.0054331,74.0408,100.6129,319.2459,192.5491,0,U,34401,999,79922,0.001838,0.00012303,0
COSMOS 2251 DEB,1993-036RA,2024-03-18T07:16:47.178048,14.55568786,0.0085055,74.0624,69.6983,309.0987,111.9333,0,U,34409,999,79953,0.00030611,1.37e-05,0
COSMOS 2251 DEB,1993-036RB,2024-03-18T13:34:10.083936,14.76910996,0.0048967,73.7625,122.6694,76.8628,73.4157,0,U,34410,999,80297,0.0010572,7.557e-05,0
COSMOS 2251 DEB,1993-036RD,2024-03-18T00:14:36.650688,14.3639687,0.0221611,73.9503,69.1675,305.6282,52.4405,0,U,34412,999,78499,0.0021353,8.264e-05,0
COSMOS 2251 DEB,1993-036RE,2024-03-18T02:54:23.378688,14.21593247,0.0103871,74.0358,331.0842,199.3578,312.5175,0,U,34413,999,78086,0.0010261,2.351e-05,0
COSMOS 2251 DEB,1993-036RM,2024-03-18T11:54:20.367648,14.65508468,0.0110962,74.0325,248.3246,171.5736,252.3733,0,U,34420,999,80469,0.00033999,1.984e-05,0
COSMOS 2251 DEB,1993-036RR,2024-03-17T17:42:27.497664,15.16597119,0.0015499,74.0077,187.4798,94.6942,55.1711,0,U,34424,999,80658,0.0043004,0.00085243,0
COSMOS 2251 DEB,1993-036RS,2024-03-18T09:43:24.411360,14.53692728,0.0028549,74.029,182.8004,98.6015,261.8384,0,U,34425,999,79493,0.00059088,2.46e-05,0
COSMOS 2251 DEB,1993-036RV,2024-03-18T13:52:01.152768,14.70094921,0.0030184,74.0327,168.8729,27.6516,35.0767,0,U,34428,999,79486,0.0022579,0.00013662,0
COSMOS 2251 DEB,1993-036RW,2024-03-18T06:19:32.351232,14.72938469,0.0035631,74.0073,14.2025,312.3853,198.2438,0,U,34429,999,79957,0.0021248,0.00013762,0
COSMOS 2251 DEB,1993-036RX,2024-03-18T13:16:30.100224,14.36551549,0.0065832,74.0537,30.8736,259.5971,99.7758,0,U,34430,999,78837,0.00043047,1.27e-05,0
COSMOS 2251 DEB,1993-036RY,2024-03-18T11:42:00.901152,14.25198722,0.0072359,74.0756,240.2738,25.6079,334.8623,0,U,34431,999,78094,0.00067438,1.604e-05,0
COSMOS 2251 DEB,1993-036RZ,2024-03-18T12:49:54.546240,13.99650789,0.0191782,73.8295,137.1007,331.556,141.2245,0,U,34432,999,76799,0.00067011,1.122e-05,0
COSMOS 2251 DEB,1993-036SA,2024-03-18T08:03:58.690944,14.06368627,0.0166317,74.0193,192.9502,113.3203,248.5534,0,U,34433,999,77008,0.0019586,3.642e-05,0
COSMOS 2251 DEB,1993-036SB,2024-03-18T05:08:57.125184,13.78368496,0.0315706,74.067,0.3396,281.6173,232.3789,0,U,34434,999,75183,0.0022855,3.322e-05,0
COSMOS 2251 DEB,1993-036SG,2024-03-18T11:10:25.293792,14.91238142,0.0082512,74.0504,357.0064,190.4289,169.5187,0,U,34439,999,80205,0.0017017,0.00018076,0
COSMOS 2251 DEB,1993-036SK,2024-03-17T22:22:35.822784,14.82618512,0.0055293,74.0104,263.3176,188.0183,172.0117,0,U,34442,999,80406,0.0019855,0.00016428,0
COSMOS 2251 DEB,1993-036SP,2024-03-18T08:41:27.562848,14.47958667,0.0050843,74.0429,165.7393,101.1032,259.585,0,U,34446,999,79507,0.00014702,5.27e-06,0
COSMOS 2251 DEB,1993-036SS,2024-03-17T21:10:58.940832,14.59697645,0.005548,74.0477,233.037,89.7949,61.7231,0,U,34449,999,79326,0.0019992,9.722e-05,0
COSMOS 2251 DEB,1993-036SU,2024-03-18T11:34:45.368256,14.59244383,0.0057046,74.0574,248.3044,90.0913,270.679,0,U,34451,999,79277,0.0017686,8.521e-05,0
COSMOS 2251 DEB,1993-036SV,2024-03-18T13:58:25.154976,14.89654029,0.0101112,74.0447,32.8389,280.0817,196.2372,0,U,34452,999,81150,0.00088314,9.271e-05,0
COSMOS 2251 DEB,1993-036SW,2024-03-18T12:39:02.392128,14.63508415,0.0030529,74.1637,283.0091,319.0972,68.0964,0,U,34453,999,79411,0.0012548,6.525e-05,0
COSMOS 2251 DEB,1993-036SX,2024-03-18T11:03:13.405248,14.37012948,0.0037596,74.0618,4.2672,228.4794,131.3132,0,U,34454,999,78950,0.00024755,7.14e-06,0
COSMOS 2251 DEB,1993-036SZ,2024-03-18T12:17:35.543616,14.79966218,0.0038879,74.0334,254.1454,94.6572,265.9046,0,U,34456,999,79276,0.0052906,0.00040719,0
COSMOS 2251 DEB,1993-036TA,2024-03-18T01:10:02.057952,14.81575175,0.0077882,73.9957,305.5108,227.8904,250.9271,0,U,34457,999,80198,0.0013011,0.00010751,0
COSMOS 2251 DEB,1993-036TB,2024-03-18T11:19:16.906944,14.72400408,0.0013475,74.0229,180.5911,12.5915,113.7384,0,U,34458,999,79518,0.0030644,0.00019468,0
COSMOS 2251 DEB,1993-036TC,2024-03-17T23:29:36.075264,13.98701527,0.0195671,74.0776,269.7311,132.5397,229.2446,0,U,34459,999,76830,0.00056723,9.38e-06,0
COSMOS 2251 DEB,1993-036TH,2024-03-17T23:54:46.776672,14.77723976,0.004475,74.0169,285.7637,234.7068,255.0816,0,U,34464,999,80338,0.0010578,7.685e-05,0
COSMOS 2251 DEB,1993-036TJ,2024-03-18T08:39:50.983200,14.76876108,0.0067243,74.0666,177.8936,352.888,7.1333,0,U,34465,999,79552,0.0020599,0.00015027,0
COSMOS 2251 DEB,1993-036TM,2024-03-17T20:16:29.729856,14.4484634,0.0078496,74.0143,224.258,162.7465,197.6389,0,U,34468,999,79282,0.00053664,1.911e-05,0
COSMOS 2251 DEB,1993-036TR,2024-03-17T08:34:06.841632,13.67001491,0.0342208,74.0854,60.6564,336.4155,22.1578,0,U,34472,999,75032,0.0015147,1.875e-05,0
COSMOS 2251 DEB,1993-036TS,2024-03-17T20:42:19.515168,14.64389762,0.0020078,74.0272,232.6837,63.1761,86.8568,0,U,34473,999,79398,0.0028544,0.00015138,0
COSMOS 2251 DEB,1993-036TT,2024-03-18T04:33:55.116000,13.99306788,0.0221984,74.0814,348.3783,216.3164,302.2994,0,U,34474,999,76607,0.00099681,1.766e-05,0
COSMOS 2251 DEB,1993-036TV,2024-03-17T23:01:47.292096,13.71728747,0.0337279,74.0136,63.8253,59.1167,304.2659,0,U,34476,999,74898,0.0042296,5.717e-05,0
COSMOS 2251 DEB,1993-036TW,2024-03-18T12:01:17.855904,14.49588132,0.0083923,73.9819,191.567,167.2637,318.0952,0,U,34477,999,79410,0.0010746,4.289e-05,0
COSMOS 2251 DEB,1993-036TX,2024-03-18T10:51:43.020864,14.64909232,0.0076176,74.0588,183.9065,206.0847,281.8231,0,U,34478,999,79562,0.0027468,0.00015332,0
COSMOS 2251 DEB,1993-036UA,2024-03-18T03:39:44.271072,14.28537781,0.0071316,73.9793,132.6771,88.4966,303.309,0,U,34481,999,78373,0.00060064,1.522e-05,0
COSMOS 2251 DEB,1993-036UB,2024-03-18T04:07:11.028288,14.48693207,0.0068339,74.0477,352.7703,212.3251,273.1758,0,U,34482,999,78931,0.0012261,4.733e-05,0
COSMOS 2251 DEB,1993-036UC,2024-03-18T14:08:12.855552,15.13310787,0.0016358,74.0023,288.9516,190.8798,169.2044,0,U,34542,999,80152,0.0043932,0.00079333,0
